{
  "norad_id": 63998,
  "name": "STARLINK-34150",
  "history": [
    {
      "epoch": "2026-03-28T18:55:35.566176",
      "apogee_km": 484.2442180334692,
      "perigee_km": 481.6404384284051,
      "latitude_deg": -2.4138902964021836,
      "longitude_deg": -64.49381536012515,
      "semi_major_axis_km": 6861.079328230937,
      "eccentricity": 0.00018975,
      "inclination_deg": 43.001,
      "raan_deg": 250.3279,
      "arg_perigee_deg": 266.9172,
      "mean_anomaly_deg": 93.1463,
      "mean_motion_rev_day": 15.27615657
    }
  ]
}